LEMUR-1                 
1 40044U 14033AL  26113.24762314  .00001537  00000+0  18320-3 0  9997
2 40044  97.7804 264.3046 0047163 257.9708 101.6219 14.84999318637319
LEMUR-2-GREENBERG       
1 42837U 17042N   26112.96906293  .00012429  00000+0  43562-3 0  9994
2 42837  97.3814 293.9274 0009146 192.3769 167.7249 15.29566252479943
LEMUR-2-ANDIS           
1 42838U 17042P   26111.94049734  .00018715  00000+0  59678-3 0  9999
2 42838  97.3681 292.9152 0009146 199.0358 161.0543 15.32528594479831
LEMUR-2-MONSON          
1 42839U 17042Q   26113.05814709  .00011945  00000+0  46054-3 0  9998
2 42839  97.4069 294.0652 0007100 178.5148 181.6113 15.26447427479758
LEMUR-2-FURIAUS         
1 42840U 17042R   26113.05252910  .00016101  00000+0  58567-3 0  9991
2 42840  97.3770 292.0941 0006776 251.2684 108.7820 15.28305382479782
LEMUR-2-PETERG          
1 42841U 17042S   26112.93434248  .00017404  00000+0  57074-3 0  9993
2 42841  97.4000 297.9742 0004618 163.9126 196.2263 15.31673810479978
LEMUR-2-DEMBITZ         
1 42842U 17042T   26112.74967000  .00011492  00000+0  41584-3 0  9990
2 42842  97.3831 294.7655 0006687 203.3425 156.7512 15.28557524479873
LEMUR-2-ZACHARY         
1 42845U 17042W   26112.78790746  .00027392  00000+0  56812-3 0  9994
2 42845  97.3648 303.4322 0003995 199.9850 160.1243 15.45684549480635
LEMUR-2-KADI            
1 43184U 18014E   26113.23717081  .00148792  00000+0  97132-3 0  9991
2 43184  97.4568  40.8373 0007040  98.5112 261.6951 15.75393216452376
LEMUR-2-AMANDA-SVANTE   
1 48269U 21034B   26113.18816930  .00020295  00000+0  67740-3 0  9992
2 48269  97.5772 190.1629 0004253 104.3037 255.8676 15.31077104272636
LEMUR-2-SPECIAL-K       
1 48273U 21034F   26113.22665347  .00063176  00000+0  10314-2 0  9995
2 48273  97.5657 196.6883 0002649 162.8643 197.2699 15.52365126273132
LEMUR-2-EMBRIONOVIS     
1 56970U 23084AQ  26113.31307770  .00010815  00000+0  30949-3 0  9997
2 56970  97.6217 255.4930 0010015 145.2493 214.9406 15.36093181159259
LEMUR-2-MANO            
1 57390U 23100E   26113.03319192  .00245901  00000+0  14243-2 0  9997
2 57390  99.4436 150.9022 0013747 172.2671 187.8803 15.77747785153437
LEMUR-2-DEVERILL-M-T    
1 57391U 23100F   26113.01285655  .00017937  00000+0  49642-3 0  9990
2 57391  99.4531 135.9718 0006440 212.2688 147.8157 15.37085426152760
LEMUR-2-BASS            
1 58259U 23174D   26113.18712405  .00012093  00000+0  29199-3 0  9994
2 58259  97.3842 197.2103 0006797  20.4927 339.6591 15.41313543136882
LEMUR-2-JK0903EM1407    
1 58336U 23174CJ  26112.50316843  .00015961  00000+0  29725-3 0  9993
2 58336  97.3891 201.5458 0003763 311.5374  48.5554 15.48923702137106
LEMUR-2-MJR092620       
1 58340U 23174CN  26113.00345686  .00008487  00000+0  19303-3 0  9997
2 58340  97.3955 202.1024 0005297 327.1147  32.9771 15.43228349137134
LEMUR-2-NIMBUS2000      
1 58899U 24022A   26113.01068671  .00011255  00000+0  30039-3 0  9992
2 58899  97.4175 322.3754 0007888 323.7164  36.3545 15.38262041123786
LEMUR-2-VALHALLA        
1 58900U 24022B   26113.06198549  .00011151  00000+0  30002-3 0  9993
2 58900  97.4174 322.4428 0008323 317.9777  42.0828 15.38011073123793
LEMUR-2-OBA-NI-JESU     
1 58902U 24022D   26113.06587135  .00138320  00000+0  85064-3 0  9994
2 58902  97.3950 333.7473 0003065 221.1126 138.9909 15.76817786124561
LEMUR-2-CAEL            
1 58903U 24022E   26113.11609953  .00011669  00000+0  30209-3 0  9991
2 58903  97.4159 323.3413 0006394 298.3741  61.6859 15.39201892123862
LEMUR-2-JOHNNYTRUONG    
1 59146U 24043BA  26112.92918542  .00026708  00000+0  37810-3 0  9994
2 59146  97.5335 261.4030 0003964  34.2929 325.8581 15.56473023119432
LEMUR-2-TOMATOKECHUP    
1 60471U 24149D   26113.23417003  .00008157  00000+0  24352-3 0  9990
2 60471  97.3796 195.1904 0003282  88.5406 271.6214 15.34874321 93739
LEMUR-2-STELLA          
1 60533U 24149BT  26112.72581261  .00007574  00000+0  46271-3 0  9996
2 60533  97.6725 194.9940 0001424 135.3498 224.7846 15.10570898 92126
LEMUR-2-MARHISYAM       
1 60536U 24149BW  26112.22319617  .00008694  00000+0  53774-3 0  9998
2 60536  97.6874 194.8794 0000762   2.2878 357.8355 15.10076058 92030
LEMUR-2-AHMED-ASRAR     
1 60576U 24149DN  26113.23587632  .00008114  00000+0  48364-3 0  9994
2 60576  97.6997 197.7833 0002841 157.0723 203.0634 15.11443515 92268
LEMUR-2-LLOYD           
1 60577U 24149DP  26113.19174011  .00006480  00000+0  42345-3 0  9990
2 60577  97.6738 194.3392 0002964 356.9067   3.2142 15.08152315 92100
LEMUR-2-SQUIRRELCOMM    
1 60578U 24149DQ  26113.20425757  .00003844  00000+0  26448-3 0  9996
2 60578  97.6710 194.3173 0004488 223.4394 136.6480 15.06493182 92128
LEMUR-2-SIERRINI        
1 60579U 24149DR  26113.16278326  .00007925  00000+0  49456-3 0  9998
2 60579  97.6835 195.5653 0004963  24.1098 336.0362 15.09770396 92154
LEMUR-2-WILSON          
1 62694U 25009CP  26113.14596909  .00001589  00000+0  15088-3 0  9996
2 62694  97.7032 192.5853 0002735 194.5299 165.5843 14.94915333 69139
LEMUR-2-STAR-FOX        
1 62696U 25009CR  26112.93437486  .00005086  00000+0  39582-3 0  9999
2 62696  97.6929 195.0033 0001730  90.7029 269.4393 15.01691409 69267
LEMUR-2-ARIANNA         
1 62699U 25009CU  26113.19745026  .00004739  00000+0  37011-3 0  9992
2 62699  97.6854 195.0864 0001534  63.9985 296.1397 15.01592863 69304
LEMUR-2-ALISIA          
1 62706U 25009DB  26112.72015047  .00005954  00000+0  46030-3 0  9993
2 62706  97.6904 195.3010 0003498  56.3278 303.8279 15.01870679 91839
LEMUR-2-ROUNDTRIPPER    
1 62711U 25009DG  26112.98160621  .00006965  00000+0  52350-3 0  9991
2 62711  97.7222 195.7817 0003101 331.9436  28.1622 15.02887057 69335
LEMUR-2-MYNAMEISJEFF    
1 62712U 25009DH  26113.17979796  .00006508  00000+0  48948-3 0  9996
2 62712  97.7275 196.3268 0002310  24.1752 335.9581 15.02887917 69365
LEMUR-2-LEIA-PHILIP     
1 63246U 25052AN  26112.93376600  .00003400  00000+0  29919-3 0  9990
2 63246  97.6900   5.8043 0005608  63.3085 296.8710 14.97153413 60409
LEMUR-2-LIA-MARTIN      
1 63248U 25052AQ  26113.15085328  .00002967  00000+0  26089-3 0  9993
2 63248  97.6943   6.4253 0003939  32.7144 327.4321 14.97295633 60443
LEMUR-2-DELOITTE-1      
1 63259U 25052BB  26113.12165071  .00003645  00000+0  32013-3 0  9994
2 63259  97.6979   6.7189 0001044  59.5755 300.5570 14.97194604 60450
LEMUR-2-EMERSONROSE     
1 63261U 25052BD  26112.95078096  .00002414  00000+0  20589-3 0  9995
2 63261  97.6948   6.9990 0000320 225.2944 134.8252 14.98663164 60468
LEMUR-2-MARACHE-FRAN    
1 63262U 25052BE  26112.95928750  .00004008  00000+0  33154-3 0  9990
2 63262  97.6923   7.2484 0002398 204.0619 156.0492 14.99468238 60485
LEMUR-2-THEFALCONER     
1 63264U 25052BG  26112.93991566  .00002752  00000+0  24419-3 0  9993
2 63264  97.6922   6.2195 0002292 137.1199 223.0202 14.96995591 60428
LEMUR-2-UNTITLED-SC     
1 63351U 25061A   26112.87531010  .00003273  00000+0  18788-3 0  9998
2 63351  97.5609  88.6708 0020795  95.4517 264.9087 15.13067688 59226
LEMUR-2-ESPERANZA       
1 63352U 25061B   26113.18642616  .00002612  00000+0  15037-3 0  9999
2 63352  97.5619  89.0601 0020437  93.8664 266.4904 15.13157807 59276
LEMUR-2-KREMPEL-BRO2    
1 63353U 25061C   26112.89846400  .00002971  00000+0  16845-3 0  9990
2 63353  97.5665  89.2375 0021345  87.9309 272.4366 15.13578096 59240
LEMUR-2-THERMORAPTOR    
1 63354U 25061D   26112.88323308  .00003421  00000+0  19307-3 0  9994
2 63354  97.5670  89.2879 0021067  87.1266 273.2376 15.13646956 59242
LEMUR-2-NEUROSPICY      
1 63355U 25061E   26113.18955718  .00002860  00000+0  16164-3 0  9999
2 63355  97.5597  89.2612 0018965  89.5045 270.8360 15.13764069 59297
LEMUR-2-TILLINFINITY    
1 63356U 25061F   26113.18007952  .00002741  00000+0  15249-3 0  9999
2 63356  97.5584  89.5039 0020141  78.9126 281.4369 15.14345268 59318
LEMUR-2-KREMPEL-BRO1    
1 63357U 25061G   26112.48569286  .00003060  00000+0  17065-3 0  9998
2 63357  97.5586  88.7455 0020760  82.0379 278.3208 15.14155079 59201
LEMUR-2-LANGER2SPACE    
1 63358U 25061H   26112.89769081  .00002931  00000+0  16516-3 0  9995
2 63358  97.5589  88.9908 0018807  88.8928 271.4458 15.13857131 59256
LEMUR-2-BALTO           
1 63395U 25052BH  26111.67652357  .00003482  00000+0  28840-3 0  9993
2 63395  97.6951   5.9776 0000802 166.8189 193.3056 14.99504024 60290
LEMUR-2-KRISH           
1 64561U 25135AK  26113.29220117  .00003046  00000+0  27901-3 0  9999
2 64561  97.7671 228.5935 0001276 101.2484 258.8880 14.95680165 45712
LEMUR-2-HUBBLE-4        
1 64565U 25135AP  26113.12207772  .00001381  00000+0  13816-3 0  9997
2 64565  97.7631 227.7130 0003976 108.4880 251.6771 14.93036323 45650
LEMUR-2-SEJONG-2        
1 64586U 25135BL  26113.27426448  .00004107  00000+0  36912-3 0  9990
2 64586  97.7621 228.7144 0005788 137.2890 222.8782 14.96218201 45733
LEMUR-2-HUBBLE-5        
1 64840U 25135BT  26113.30600609  .00000963  00000+0  95745-4 0  9996
2 64840  97.7648 228.4496 0006368 149.8256 210.3332 14.93959861 45714
LEMUR-2-KARENDARRELL    
1 64841U 25135BU  26113.27362119  .00006423  00000+0  52989-3 0  9993
2 64841  97.7658 229.6078 0009488  59.2024 301.0132 14.99324673 45784
LEMUR-2-LUCILLE-ROSE    
1 65403U 25135BV  26113.31530826  .00005798  00000+0  47873-3 0  9995
2 65403  97.7643 229.6387 0010753 106.6446 253.5958 14.99323890 40410
LEMUR-2-AFFIE-WAUWIE    
1 66295U 25248C   26113.20666217  .00012724  00000+0  50729-3 0  9993
2 66295  45.3991  52.4499 0008444 132.5499 227.6104 15.25249982 26194
LEMUR-2-DEANANDMAEVE    
1 66678U 25276N   26113.19089753  .00004683  00000+0  22686-3 0  9997
2 66678  97.4226 187.6042 0006072 176.3590 183.7690 15.19015643 22068
LEMUR-2-STAS-GORBUK     
1 66686U 25276W   26113.12863456  .00004132  00000+0  20201-3 0  9999
2 66686  97.4261 187.5978 0005633 171.0025 189.1311 15.18765549 22055
